start=new Date('2022-10-29T00:00:00.000Z').valueOf();
sats=[{"ECCENTRICITY":"0.00012670","TLE_LINE2":"2 48387  53.0553  99.1884 0001267 102.2094 257.9037 15.06410975 82153","MEAN_MOTION_DDOT":"0.0000000000000","RCS_SIZE":"MEDIUM","OBJECT_ID":"2021-038AL","REF_FRAME":"TEME","ELEMENT_SET_NO":"999","PERIAPSIS":"546.302","INCLINATION":"53.0553","BSTAR":"0.00020391000000","DECAY_DATE":null,"GP_ID":"216406935","MEAN_MOTION":"15.06410975","CLASSIFICATION_TYPE":"U","OBJECT_TYPE":"PAYLOAD","PERIOD":"95.591","REV_AT_EPOCH":"8215","EPHEMERIS_TYPE":"0","ARG_OF_PERICENTER":"102.2094","NORAD_CAT_ID":"48387","EPOCH":"2022-10-28T17:10:47.750016","MEAN_ANOMALY":"257.9037","COUNTRY_CODE":"US","SITE":"AFETR","TIME_SYSTEM":"UTC","TLE_LINE1":"1 48387U 21038AL  22301.71583044  .00002758  00000-0  20391-3 0  9994","FILE":"3637111","LAUNCH_DATE":"2021-05-04","APOAPSIS":"548.057","MEAN_MOTION_DOT":"0.00002758","RA_OF_ASC_NODE":"99.1884","CENTER_NAME":"EARTH","OBJECT_NAME":"STARLINK-2600","MEAN_ELEMENT_THEORY":"SGP4","SEMIMAJOR_AXIS":"6925.315"},{"REF_FRAME":"TEME","OBJECT_ID":"2021-038AM","RCS_SIZE":"LARGE","MEAN_MOTION_DDOT":"0.0000000000000","TLE_LINE2":"2 48388  53.0534  99.2295 0001530 113.9006 246.2144 15.06419046 82153","ECCENTRICITY":"0.00015300","DECAY_DATE":null,"GP_ID":"216407185","BSTAR":"0.00019704000000","INCLINATION":"53.0534","PERIAPSIS":"546.096","ELEMENT_SET_NO":"999","PERIOD":"95.591","OBJECT_TYPE":"PAYLOAD","CLASSIFICATION_TYPE":"U","MEAN_MOTION":"15.06419046","EPOCH":"2022-10-28T17:05:30.309504","NORAD_CAT_ID":"48388","MEAN_ANOMALY":"246.2144","ARG_OF_PERICENTER":"113.9006","REV_AT_EPOCH":"8215","EPHEMERIS_TYPE":"0","COUNTRY_CODE":"US","TIME_SYSTEM":"UTC","SITE":"AFETR","RA_OF_ASC_NODE":"99.2295","MEAN_MOTION_DOT":"0.00002656","APOAPSIS":"548.215","LAUNCH_DATE":"2021-05-04","FILE":"3637111","TLE_LINE1":"1 48388U 21038AM  22301.71215636  .00002656  00000-0  19704-3 0  9997","SEMIMAJOR_AXIS":"6925.290","MEAN_ELEMENT_THEORY":"SGP4","OBJECT_NAME":"STARLINK-2594","CENTER_NAME":"EARTH"},{"OBJECT_TYPE":"PAYLOAD","MEAN_MOTION":"15.06411740","CLASSIFICATION_TYPE":"U","PERIOD":"95.591","REV_AT_EPOCH":"8223","EPHEMERIS_TYPE":"0","EPOCH":"2022-10-28T19:57:18.273600","ARG_OF_PERICENTER":"110.4802","MEAN_ANOMALY":"249.6310","NORAD_CAT_ID":"48389","TLE_LINE2":"2 48389  53.0550  93.6913 0001147 110.4802 249.6310 15.06411740 82231","MEAN_MOTION_DDOT":"0.0000000000000","ECCENTRICITY":"0.00011470","OBJECT_ID":"2021-038AN","REF_FRAME":"TEME","RCS_SIZE":"LARGE","PERIAPSIS":"546.383","ELEMENT_SET_NO":"999","BSTAR":"0.00020792000000","INCLINATION":"53.0550","DECAY_DATE":null,"GP_ID":"216407437","LAUNCH_DATE":"2021-05-04","TLE_LINE1":"1 48389U 21038AN  22301.83146150  .00002818  00000-0  20792-3 0  9994","FILE":"3637111","MEAN_MOTION_DOT":"0.00002818","RA_OF_ASC_NODE":"93.6913","APOAPSIS":"547.972","CENTER_NAME":"EARTH","OBJECT_NAME":"STARLINK-1904","MEAN_ELEMENT_THEORY":"SGP4","SEMIMAJOR_AXIS":"6925.313","COUNTRY_CODE":"US","SITE":"AFETR","TIME_SYSTEM":"UTC"},{"GP_ID":"216408186","DECAY_DATE":null,"INCLINATION":"53.0552","BSTAR":"0.00008947200000","ELEMENT_SET_NO":"999","PERIAPSIS":"546.248","RCS_SIZE":"LARGE","REF_FRAME":"TEME","OBJECT_ID":"2021-038AP","ECCENTRICITY":"0.00013700","MEAN_MOTION_DDOT":"0.0000000000000","TLE_LINE2":"2 48390  53.0552  94.3029 0001370 105.2005 254.9136 15.06405498 83437","NORAD_CAT_ID":"48390","EPOCH":"2022-10-28T16:42:16.754400","MEAN_ANOMALY":"254.9136","ARG_OF_PERICENTER":"105.2005","REV_AT_EPOCH":"8343","EPHEMERIS_TYPE":"0","PERIOD":"95.592","MEAN_MOTION":"15.06405498","CLASSIFICATION_TYPE":"U","OBJECT_TYPE":"PAYLOAD","TIME_SYSTEM":"UTC","SITE":"AFETR","COUNTRY_CODE":"US","SEMIMAJOR_AXIS":"6925.332","OBJECT_NAME":"STARLINK-2586","MEAN_ELEMENT_THEORY":"SGP4","CENTER_NAME":"EARTH","APOAPSIS":"548.145","RA_OF_ASC_NODE":"94.3029","MEAN_MOTION_DOT":"0.00001052","FILE":"3637111","TLE_LINE1":"1 48390U 21038AP  22301.69602725  .00001052  00000-0  89472-4 0  9995","LAUNCH_DATE":"2021-05-04"},{"DECAY_DATE":null,"GP_ID":"216406436","PERIAPSIS":"546.230","ELEMENT_SET_NO":"999","BSTAR":"0.00010578000000","INCLINATION":"53.0556","RCS_SIZE":"LARGE","OBJECT_ID":"2021-038AQ","REF_FRAME":"TEME","ECCENTRICITY":"0.00014480","MEAN_MOTION_DDOT":"0.0000000000000","TLE_LINE2":"2 48391  53.0556  93.7309 0001448  94.6517 265.4638 15.06393883 83451","EPOCH":"2022-10-28T19:48:03.029184","MEAN_ANOMALY":"265.4638","NORAD_CAT_ID":"48391","ARG_OF_PERICENTER":"94.6517","REV_AT_EPOCH":"8345","EPHEMERIS_TYPE":"0","PERIOD":"95.593","MEAN_MOTION":"15.06393883","CLASSIFICATION_TYPE":"U","OBJECT_TYPE":"PAYLOAD","SITE":"AFETR","TIME_SYSTEM":"UTC","COUNTRY_CODE":"US","OBJECT_NAME":"STARLINK-2607","MEAN_ELEMENT_THEORY":"SGP4","SEMIMAJOR_AXIS":"6925.367","CENTER_NAME":"EARTH","APOAPSIS":"548.235","MEAN_MOTION_DOT":"0.00001294","RA_OF_ASC_NODE":"93.7309","TLE_LINE1":"1 48391U 21038AQ  22301.82503506  .00001294  00000-0  10578-3 0  9996","FILE":"3637111","LAUNCH_DATE":"2021-05-04"},{"COUNTRY_CODE":"US","TIME_SYSTEM":"UTC","SITE":"AFETR","FILE":"3637111","TLE_LINE1":"1 48392U 21038AR  22301.82135440 -.00000028  00000-0  17011-4 0  9990","LAUNCH_DATE":"2021-05-04","APOAPSIS":"548.286","RA_OF_ASC_NODE":"93.7378","MEAN_MOTION_DOT":"-0.00000028","CENTER_NAME":"EARTH","SEMIMAJOR_AXIS":"6925.317","MEAN_ELEMENT_THEORY":"SGP4","OBJECT_NAME":"STARLINK-2605","ECCENTRICITY":"0.00015950","TLE_LINE2":"2 48392  53.0535  93.7378 0001595 116.6461 243.4692 15.06410326 83459","MEAN_MOTION_DDOT":"0.0000000000000","RCS_SIZE":"LARGE","REF_FRAME":"TEME","OBJECT_ID":"2021-038AR","INCLINATION":"53.0535","BSTAR":"0.00001701100000","ELEMENT_SET_NO":"999","PERIAPSIS":"546.077","DECAY_DATE":null,"GP_ID":"216406686","CLASSIFICATION_TYPE":"U","MEAN_MOTION":"15.06410326","OBJECT_TYPE":"PAYLOAD","PERIOD":"95.591","EPHEMERIS_TYPE":"0","REV_AT_EPOCH":"8345","EPOCH":"2022-10-28T19:42:45.020160","ARG_OF_PERICENTER":"116.6461","MEAN_ANOMALY":"243.4692","NORAD_CAT_ID":"48392"},{"REF_FRAME":"TEME","OBJECT_ID":"2021-038AS","RCS_SIZE":"LARGE","MEAN_MOTION_DDOT":"0.0000000000000","TLE_LINE2":"2 48393  53.0543  94.0462 0001319  86.9268 273.1872 15.06389575 83445","ECCENTRICITY":"0.00013190","DECAY_DATE":null,"GP_ID":"216407937","INCLINATION":"53.0543","BSTAR":"-0.00006740300000","PERIAPSIS":"546.332","ELEMENT_SET_NO":"999","PERIOD":"95.593","OBJECT_TYPE":"PAYLOAD","CLASSIFICATION_TYPE":"U","MEAN_MOTION":"15.06389575","MEAN_ANOMALY":"273.1872","ARG_OF_PERICENTER":"86.9268","EPOCH":"2022-10-28T18:01:53.498496","NORAD_CAT_ID":"48393","EPHEMERIS_TYPE":"0","REV_AT_EPOCH":"8344","COUNTRY_CODE":"US","TIME_SYSTEM":"UTC","SITE":"AFETR","RA_OF_ASC_NODE":"94.0462","MEAN_MOTION_DOT":"-0.00001285","APOAPSIS":"548.159","LAUNCH_DATE":"2021-05-04","FILE":"3637111","TLE_LINE1":"1 48393U 21038AS  22301.75131364 -.00001285  00000-0 -67403-4 0  9991","SEMIMAJOR_AXIS":"6925.381","MEAN_ELEMENT_THEORY":"SGP4","OBJECT_NAME":"STARLINK-2602","CENTER_NAME":"EARTH"},{"MEAN_MOTION":"15.06408337","CLASSIFICATION_TYPE":"U","OBJECT_TYPE":"PAYLOAD","PERIOD":"95.592","REV_AT_EPOCH":"8344","EPHEMERIS_TYPE":"0","NORAD_CAT_ID":"48394","ARG_OF_PERICENTER":"106.7530","EPOCH":"2022-10-28T17:56:35.183616","MEAN_ANOMALY":"253.3601","ECCENTRICITY":"0.00012950","TLE_LINE2":"2 48394  53.0524  94.0696 0001295 106.7530 253.3601 15.06408337 83448","MEAN_MOTION_DDOT":"0.0000000000000","RCS_SIZE":"LARGE","OBJECT_ID":"2021-038AT","REF_FRAME":"TEME","PERIAPSIS":"546.291","ELEMENT_SET_NO":"999","INCLINATION":"53.0524","BSTAR":"0.00014972000000","DECAY_DATE":null,"GP_ID":"216407687","TLE_LINE1":"1 48394U 21038AT  22301.74762944  .00001950  00000-0  14972-3 0  9994","FILE":"3637111","LAUNCH_DATE":"2021-05-04","APOAPSIS":"548.085","MEAN_MOTION_DOT":"0.00001950","RA_OF_ASC_NODE":"94.0696","CENTER_NAME":"EARTH","MEAN_ELEMENT_THEORY":"SGP4","OBJECT_NAME":"STARLINK-2573","SEMIMAJOR_AXIS":"6925.323","COUNTRY_CODE":"US","SITE":"AFETR","TIME_SYSTEM":"UTC"},{"GP_ID":"216382577","DECAY_DATE":null,"ELEMENT_SET_NO":"999","PERIAPSIS":"546.246","BSTAR":"0.00004173300000","INCLINATION":"53.0535","RCS_SIZE":"LARGE","OBJECT_ID":"2021-038AU","REF_FRAME":"TEME","ECCENTRICITY":"0.00013890","TLE_LINE2":"2 48395  53.0535  94.7953 0001389 120.4943 239.6183 15.06401872 82807","MEAN_MOTION_DDOT":"0.0000000000000","EPOCH":"2022-10-28T17:24:50.990688","MEAN_ANOMALY":"239.6183","ARG_OF_PERICENTER":"120.4943","NORAD_CAT_ID":"48395","REV_AT_EPOCH":"8280","EPHEMERIS_TYPE":"0","PERIOD":"95.592","MEAN_MOTION":"15.06401872","CLASSIFICATION_TYPE":"U","OBJECT_TYPE":"PAYLOAD","SITE":"AFETR","TIME_SYSTEM":"UTC","COUNTRY_CODE":"US","MEAN_ELEMENT_THEORY":"SGP4","OBJECT_NAME":"STARLINK-2574","SEMIMAJOR_AXIS":"6925.343","CENTER_NAME":"EARTH","APOAPSIS":"548.170","MEAN_MOTION_DOT":"0.00000340","RA_OF_ASC_NODE":"94.7953","TLE_LINE1":"1 48395U 21038AU  22301.72559017  .00000340  00000-0  41733-4 0  9996","FILE":"3636974","LAUNCH_DATE":"2021-05-04"},{"CLASSIFICATION_TYPE":"U","MEAN_MOTION":"15.06409711","OBJECT_TYPE":"PAYLOAD","PERIOD":"95.592","REV_AT_EPOCH":"8344","EPHEMERIS_TYPE":"0","ARG_OF_PERICENTER":"116.5843","EPOCH":"2022-10-28T17:51:16.737408","MEAN_ANOMALY":"243.5276","NORAD_CAT_ID":"48396","ECCENTRICITY":"0.00012670","TLE_LINE2":"2 48396  53.0544  94.0919 0001267 116.5843 243.5276 15.06409711 83441","MEAN_MOTION_DDOT":"0.0000000000000","RCS_SIZE":"LARGE","OBJECT_ID":"2021-038AV","REF_FRAME":"TEME","PERIAPSIS":"546.306","ELEMENT_SET_NO":"999","BSTAR":"0.00013421000000","INCLINATION":"53.0544","GP_ID":"216407186","DECAY_DATE":null,"TLE_LINE1":"1 48396U 21038AV  22301.74394372  .00001719  00000-0  13421-3 0  9993","FILE":"3637111","LAUNCH_DATE":"2021-05-04","APOAPSIS":"548.061","MEAN_MOTION_DOT":"0.00001719","RA_OF_ASC_NODE":"94.0919","CENTER_NAME":"EARTH","OBJECT_NAME":"STARLINK-2575","MEAN_ELEMENT_THEORY":"SGP4","SEMIMAJOR_AXIS":"6925.319","COUNTRY_CODE":"US","SITE":"AFETR","TIME_SYSTEM":"UTC"}];
